INTELSAT 902 (IS-902)   
1 26900U 01039A   26178.51120611 -.00000278  00000+0  00000+0 0  9997
2 26900   6.1422  71.6579 0004203  25.0587 312.8320  1.00271191 90791
INTELSAT 904 (IS-904)   
1 27380U 02007A   26178.51449947 -.00000220  00000+0  00000+0 0  9999
2 27380   6.9451  69.0623 0006518  11.6580 348.6374  1.00272932 51865
DIRECTV 5 (TEMPO 1)     
1 27426U 02023A   26178.52589118 -.00000050  00000+0  00000+0 0  9995
2 27426   4.9036  75.1862 0003547  25.1798 254.4867  1.00271647 88229
INTELSAT 905 (IS-905)   
1 27438U 02027A   26178.55401512  .00000099  00000+0  00000+0 0  9998
2 27438   6.7789  69.6774 0004149  27.5247 240.6966  1.00272347 51462
GALAXY 3C (G-3C)        
1 27445U 02030A   26178.51969306 -.00000145  00000+0  00000+0 0  9999
2 27445   3.7588  77.8466 0001985  25.8376 264.1981  1.00272413 46592
INTELSAT 906 (IS-906)   
1 27513U 02041A   26177.82086038  .00000019  00000+0  00000+0 0  9991
2 27513   5.8263  72.8033 0004205   7.3513 194.4364  1.00272159 87123
GALAXY 13 (HORIZONS-1)  
1 27954U 03044A   26178.54142366  .00000143  00000+0  00000+0 0  9999
2 27954   1.4453  83.7343 0001708   4.4688 232.3448  1.00270013 46673
INTELSAT 10-02          
1 28358U 04022A   26178.37827779  .00000000  00000+0  00000+0 0  9996
2 28358   0.0265 287.6029 0000198 187.6423 295.4189  1.00270692 80658
DIRECTV 8               
1 28659U 05019A   26178.53033987  .00000013  00000+0  00000+0 0  9999
2 28659   0.0232  70.9098 0003303  29.0207 247.5809  1.00271828 77177
GALAXY 28 (G-28)        
1 28702U 05022A   26178.44446347 -.00000192  00000+0  00000+0 0  9999
2 28702   3.3242  78.8082 0002282  17.3441 312.3088  1.00270939 52072
GALAXY 16 (G-16)        
1 29236U 06023A   26178.50149941 -.00000115  00000+0  00000+0 0  9996
2 29236   0.0434 121.2499 0002882 324.3207 271.5699  1.00272082 73072
DIRECTV 9S              
1 29494U 06043A   26178.50106608 -.00000104  00000+0  00000+0 0  9995
2 29494   2.4469  80.7890 0005422  19.1880 254.8160  1.00271905 51486
GALAXY 17 (G-17)        
1 31307U 07016B   26178.50427274 -.00000197  00000+0  00000+0 0  9999
2 31307   2.9975  79.7782 0004601  20.3957 271.9658  1.00271110 69900
INTELSAT 11 (IS-11)     
1 32253U 07044B   26178.39454566  .00000043  00000+0  00000+0 0  9991
2 32253   3.5915  78.5532 0003104  84.4812 335.4397  0.99047724 68555
HORIZONS-2              
1 32388U 07063B   26178.50652610 -.00000244  00000+0  00000+0 0  9998
2 32388   2.6281  80.5075 0004166   7.0792 296.5756  1.00271138 67918
DIRECTV 11              
1 32729U 08013A   26178.32847093 -.00000114  00000+0  00000+0 0  9990
2 32729   0.0116 252.6165 0000345 226.3250 175.5588  1.00270270 45694
GALAXY 18 (G-18)        
1 32951U 08024A   26178.49673272  .00000000  00000+0  00000+0 0  9996
2 32951   0.0267  22.3878 0003248  77.9284 231.1180  1.00270060 45956
GALAXY 19 (G-19)        
1 33376U 08045A   26178.50184608 -.00000127  00000+0  00000+0 0  9994
2 33376   0.0418 260.4541 0002932 204.6196 254.2005  1.00271269 65000
FM-5                    
1 35493U 09034A   26178.29014939 -.00000188  00000+0  00000+0 0  9997
2 35493   0.0265 288.2413 0000848  62.7122 302.7387  1.00271914 46743
INTELSAT 14 (IS-14)     
1 36097U 09064A   26178.44091014 -.00000262  00000+0  00000+0 0  9990
2 36097   0.0162  24.7651 0002690  71.4938 293.0235  1.00272282 60701
INTELSAT 15 (IS-15)     
1 36106U 09067A   26178.46666315 -.00000173  00000+0  00000+0 0  9999
2 36106   0.0147  48.1121 0002562  52.9112  67.7012  1.00271440 41335
DIRECTV 12              
1 36131U 09075A   26178.50071940 -.00000092  00000+0  00000+0 0  9995
2 36131   0.0102 106.7179 0000386  17.4887 228.9365  1.00271477 46657
INTELSAT 16 (IS-16)     
1 36397U 10006A   26178.50600610 -.00000233  00000+0  00000+0 0  9994
2 36397   0.0144  38.9699 0002429  71.0735 271.5340  1.00272132 59759
XM-5                    
1 37185U 10053A   26178.42704338 -.00000012  00000+0  00000+0 0  9990
2 37185   0.0656 270.6957 0002498 281.5594 121.8247  1.00273245 57580
INTELSAT 17 (IS-17)     
1 37238U 10065B   26178.10645733  .00000010  00000+0  00000+0 0  9997
2 37238   0.0115  76.4921 0002351  19.9904 283.0606  1.00270844 53340
INTELSAT 28 (IS-28)     
1 37392U 11016A   26178.51449947 -.00000215  00000+0  00000+0 0  9997
2 37392   1.8324  82.5054 0004033  12.9430 333.6620  1.00271428 53384
INTELSAT 18 (IS-18)     
1 37834U 11056A   26178.48070072  .00000065  00000+0  00000+0 0  9999
2 37834   0.0148 318.3172 0002105 142.7809 167.5418  1.00273355 53910
INTELSAT 22 (IS-22)     
1 38098U 12011A   26178.17892924  .00000000  00000+0  00000+0 0  9997
2 38098   0.0387  56.9895 0001782  72.9850 281.8416  1.00270723  7288
INTELSAT 19 (IS-19)     
1 38356U 12030A   26178.49280715 -.00000045  00000+0  00000+0 0  9999
2 38356   0.0164  24.7539 0003370  77.5856 156.6757  1.00271388 50551
INTELSAT 20 (IS-20)     
1 38740U 12043A   26178.46336979 -.00000012  00000+0  00000+0 0  9995
2 38740   0.0048  48.4064 0001484 132.0086 330.4711  1.00269157 50857
INTELSAT 21 (IS-21)     
1 38749U 12045A   26178.50955943 -.00000273  00000+0  00000+0 0  9998
2 38749   0.0269  70.8264 0001854  38.7881 291.4462  1.00271460 50622
INTELSAT 23 (IS-23)     
1 38867U 12057A   26178.51059946 -.00000273  00000+0  00000+0 0  9991
2 38867   0.0118  37.5159 0000258 123.7990 245.1086  1.00271200 50059
FM-6                    
1 39360U 13058A   26178.49803272 -.00000004  00000+0  00000+0 0  9990
2 39360   0.0169  45.6124 0001663 135.3473 157.6340  1.00270900 46176
INTELSAT 30 (IS-30)     
1 40271U 14062A   26178.28841603 -.00000139  00000+0  00000+0 0  9995
2 40271   0.0235  49.7457 0001527 347.5431 246.8893  1.00271048  6890
DIRECTV 14              
1 40333U 14078B   26178.50141273 -.00000114  00000+0  00000+0 0  9995
2 40333   0.0109  23.0135 0000253  21.8592 312.0088  1.00270970 42145
DIRECTV 15              
1 40663U 15026A   26178.35817102 -.00000091  00000+0  00000+0 0  9993
2 40663   0.0172  59.5640 0000463  14.4630 227.5098  1.00271717 40565
SKY MEXICO-1            
1 40664U 15026B   26178.50548610 -.00000223  00000+0  00000+0 0  9993
2 40664   0.0165 347.2512 0002610 125.8998 265.6410  1.00271947 40558
INTELSAT 34 (IS-34)     
1 40874U 15039A   26178.43883013 -.00000274  00000+0  00000+0 0  9997
2 40874   0.0112   3.8798 0000588  37.0581 337.0938  1.00274669 39739
INTELSAT 31 (IS-31)     
1 41581U 16035A   26178.28841603 -.00000139  00000+0  00000+0 0  9992
2 41581   0.0143 291.4100 0000609 329.9596  22.8092  1.00271510 36788
INTELSAT 36 (IS-36)     
1 41747U 16053A   26178.17823588 -.00000011  00000+0  00000+0 0  9995
2 41747   0.0110   8.7270 0002427 344.1740  55.0639  1.00263988 36058
INTELSAT 32E (IS-32E)   
1 41945U 17007B   26178.51250612 -.00000257  00000+0  00000+0 0  9997
2 41945   0.0041  32.2744 0001011 326.4793  58.1881  1.00269458 34327
INTELSAT 35E (IS-35E)   
1 42818U 17041A   26178.44299014  .00000000  00000+0  00000+0 0  9991
2 42818   0.0280  28.1595 0002388  69.9449 302.4367  1.00269000 32915
INTELSAT 37E (IS-37E)   
1 42950U 17059A   26178.44628350 -.00000129  00000+0  00000+0 0  9999
2 42950   0.0192  22.8067 0002884  71.8679 323.5451  1.00271419 32169
AZERSPACE 2 (IS-38)     
1 43632U 18074A   26178.17355587  .00000000  00000+0  00000+0 0  9991
2 43632   0.0274  17.8346 0001709  80.2276 284.8179  1.00270667 28541
HORIZONS-3E             
1 43633U 18074B   26178.52267041 -.00000018  00000+0  00000+0 0  9998
2 43633   0.0209 187.1225 0000492 110.2798 335.4039  1.00272678 28449
AT&T T-16               
1 44333U 19034A   26178.35851770 -.00000104  00000+0  00000+0 0  9998
2 44333   0.0175  60.9255 0000479 274.1560 328.5977  1.00271481 25736
INTELSAT 39 (IS-39)     
1 44476U 19049B   26178.17684922  .00000000  00000+0  00000+0 0  9999
2 44476   0.0261  10.2979 0000895 340.7590  49.8511  1.00270156 25225
GALAXY 30 (G-30)        
1 46114U 20056C   26178.49638603  .00000000  00000+0  00000+0 0  9990
2 46114   0.0286  23.0886 0002296  71.2723 234.9292  1.00271006 21395
GALAXY 33 (G-33)        
1 54026U 22128A   26178.49473936  .00000091  00000+0  00000+0 0  9999
2 54026   0.0102  24.9906 0002075  67.1691 228.5487  1.00271753 13844
GALAXY 34 (G-34)        
1 54027U 22128B   26178.35114271  .00000071  00000+0  00000+0 0  9997
2 54027   0.0113  44.0196 0001913  61.1861 167.6565  1.00267218 14015
GALAXY 31 (G-31)        
1 54243U 22153A   26178.53025051  .00000000  00000+0  00000+0 0  9994
2 54243   0.0210  29.1576 0001649  72.8926 243.4747  1.00270062  7238
GALAXY 32 (G-32)        
1 54244U 22153B   26178.36042438 -.00000163  00000+0  00000+0 0  9995
2 54244   0.0131  34.8965 0002081  12.6282 266.7021  1.00271924 13243
GALAXY 35 (G-35)        
1 54741U 22170A   26178.50262608  .00000000  00000+0  00000+0 0  9994
2 54741   0.0204  18.2658 0002224  77.6413 267.5403  1.00269464 12997
GALAXY 36 (G-36)        
1 54742U 22170B   26178.50349274 -.00000173  00000+0  00000+0 0  9992
2 54742   0.0347 118.0163 0002885 331.5706 278.2858  1.00271431 12873
GALAXY 37 (G-37)        
1 57493U 23112A   26178.49595271  .00000060  00000+0  00000+0 0  9997
2 57493   0.0166  56.2332 0002254  37.3969 233.5185  1.00272082 10644
